[{"OBJECT_NAME":"ALOS (DAICHI)","OBJECT_ID":"2006-002A","EPOCH":"2026-03-26T09:15:23.924448","MEAN_MOTION":14.69859086,"ECCENTRICITY":8.01e-5,"INCLINATION":98.1244,"RA_OF_ASC_NODE":41.2608,"ARG_OF_PERICENTER":102.6202,"MEAN_ANOMALY":257.5093,"EPHEMERIS_TYPE":0,"CLASSIFICATION_TYPE":"U","NORAD_CAT_ID":28931,"ELEMENT_SET_NO":999,"REV_AT_EPOCH":7593,"BSTAR":0.00023109,"MEAN_MOTION_DOT":1.332e-5,"MEAN_MOTION_DDOT":0},{"OBJECT_NAME":"H-2A R/B","OBJECT_ID":"2006-002B","EPOCH":"2026-03-26T08:49:28.930080","MEAN_MOTION":15.16776031,"ECCENTRICITY":0.0052381,"INCLINATION":98.244,"RA_OF_ASC_NODE":233.8332,"ARG_OF_PERICENTER":183.9867,"MEAN_ANOMALY":176.0954,"EPHEMERIS_TYPE":0,"CLASSIFICATION_TYPE":"U","NORAD_CAT_ID":28932,"ELEMENT_SET_NO":999,"REV_AT_EPOCH":9696,"BSTAR":0.00052043,"MEAN_MOTION_DOT":0.0001051,"MEAN_MOTION_DDOT":0},{"OBJECT_NAME":"RESURS-DK 1","OBJECT_ID":"2006-021A","EPOCH":"2026-03-26T09:30:51.943392","MEAN_MOTION":15.12849732,"ECCENTRICITY":9.33e-5,"INCLINATION":69.9337,"RA_OF_ASC_NODE":193.8061,"ARG_OF_PERICENTER":66.6761,"MEAN_ANOMALY":293.4503,"EPHEMERIS_TYPE":0,"CLASSIFICATION_TYPE":"U","NORAD_CAT_ID":29228,"ELEMENT_SET_NO":999,"REV_AT_EPOCH":9005,"BSTAR":0.00012896,"MEAN_MOTION_DOT":2.165e-5,"MEAN_MOTION_DDOT":0},{"OBJECT_NAME":"CZ-4B R/B","OBJECT_ID":"2006-046C","EPOCH":"2026-03-26T02:23:39.172416","MEAN_MOTION":15.17064963,"ECCENTRICITY":0.00324676,"INCLINATION":97.5563,"RA_OF_ASC_NODE":129.9638,"ARG_OF_PERICENTER":208.1224,"MEAN_ANOMALY":151.8257,"EPHEMERIS_TYPE":0,"CLASSIFICATION_TYPE":"U","NORAD_CAT_ID":29507,"ELEMENT_SET_NO":999,"REV_AT_EPOCH":6253,"BSTAR":0.00019059562,"MEAN_MOTION_DOT":3.753e-5,"MEAN_MOTION_DDOT":0},{"OBJECT_NAME":"CZ-2C R/B","OBJECT_ID":"2007-010B","EPOCH":"2026-03-26T06:45:38.759040","MEAN_MOTION":14.20252036,"ECCENTRICITY":0.0057958,"INCLINATION":98.3996,"RA_OF_ASC_NODE":197.7303,"ARG_OF_PERICENTER":245.4224,"MEAN_ANOMALY":114.0907,"EPHEMERIS_TYPE":0,"CLASSIFICATION_TYPE":"U","NORAD_CAT_ID":31114,"ELEMENT_SET_NO":999,"REV_AT_EPOCH":98207,"BSTAR":8.3269e-5,"MEAN_MOTION_DOT":1.39e-6,"MEAN_MOTION_DDOT":0},{"OBJECT_NAME":"COSMO-SKYMED 1","OBJECT_ID":"2007-023A","EPOCH":"2026-03-26T12:18:47.227968","MEAN_MOTION":14.96653651,"ECCENTRICITY":9.73e-5,"INCLINATION":97.8878,"RA_OF_ASC_NODE":276.6823,"ARG_OF_PERICENTER":92.7061,"MEAN_ANOMALY":267.4272,"EPHEMERIS_TYPE":0,"CLASSIFICATION_TYPE":"U","NORAD_CAT_ID":31598,"ELEMENT_SET_NO":999,"REV_AT_EPOCH":1742,"BSTAR":0.00024661,"MEAN_MOTION_DOT":2.753e-5,"MEAN_MOTION_DDOT":0},{"OBJECT_NAME":"COSMOS 2428","OBJECT_ID":"2007-029A","EPOCH":"2026-03-26T10:54:48.024000","MEAN_MOTION":14.12948166,"ECCENTRICITY":0.0009672,"INCLINATION":70.9438,"RA_OF_ASC_NODE":168.1573,"ARG_OF_PERICENTER":259.8842,"MEAN_ANOMALY":100.1189,"EPHEMERIS_TYPE":0,"CLASSIFICATION_TYPE":"U","NORAD_CAT_ID":31792,"ELEMENT_SET_NO":999,"REV_AT_EPOCH":96646,"BSTAR":5.8204e-6,"MEAN_MOTION_DOT":-3.7e-7,"MEAN_MOTION_DDOT":0},{"OBJECT_NAME":"SL-16 R/B","OBJECT_ID":"2007-029B","EPOCH":"2026-03-26T09:28:41.450016","MEAN_MOTION":14.14842856,"ECCENTRICITY":0.0002613,"INCLINATION":70.9751,"RA_OF_ASC_NODE":137.2707,"ARG_OF_PERICENTER":277.4263,"MEAN_ANOMALY":166.7129,"EPHEMERIS_TYPE":0,"CLASSIFICATION_TYPE":"U","NORAD_CAT_ID":31793,"ELEMENT_SET_NO":999,"REV_AT_EPOCH":96773,"BSTAR":8.576e-5,"MEAN_MOTION_DOT":1.18e-6,"MEAN_MOTION_DDOT":0},{"OBJECT_NAME":"KORONAS-FOTON","OBJECT_ID":"2009-003A","EPOCH":"2026-03-26T10:12:26.112672","MEAN_MOTION":15.4375516,"ECCENTRICITY":0.0011795,"INCLINATION":82.4279,"RA_OF_ASC_NODE":258.4701,"ARG_OF_PERICENTER":95.5118,"MEAN_ANOMALY":264.7475,"EPHEMERIS_TYPE":0,"CLASSIFICATION_TYPE":"U","NORAD_CAT_ID":33504,"ELEMENT_SET_NO":999,"REV_AT_EPOCH":94832,"BSTAR":0.00029497,"MEAN_MOTION_DOT":0.00013405,"MEAN_MOTION_DDOT":0},{"OBJECT_NAME":"CZ-2C R/B","OBJECT_ID":"2011-030B","EPOCH":"2026-03-26T10:36:21.607200","MEAN_MOTION":14.81279405,"ECCENTRICITY":0.0051195,"INCLINATION":97.8572,"RA_OF_ASC_NODE":42.3734,"ARG_OF_PERICENTER":296.7374,"MEAN_ANOMALY":175.751,"EPHEMERIS_TYPE":0,"CLASSIFICATION_TYPE":"U","NORAD_CAT_ID":37731,"ELEMENT_SET_NO":999,"REV_AT_EPOCH":79257,"BSTAR":0.00018971,"MEAN_MOTION_DOT":1.457e-5,"MEAN_MOTION_DDOT":0},{"OBJECT_NAME":"H-2A R/B","OBJECT_ID":"2012-025E","EPOCH":"2026-03-26T09:24:01.234944","MEAN_MOTION":14.95281735,"ECCENTRICITY":0.0042713,"INCLINATION":98.476,"RA_OF_ASC_NODE":53.7793,"ARG_OF_PERICENTER":257.7132,"MEAN_ANOMALY":101.9303,"EPHEMERIS_TYPE":0,"CLASSIFICATION_TYPE":"U","NORAD_CAT_ID":38341,"ELEMENT_SET_NO":999,"REV_AT_EPOCH":75071,"BSTAR":0.00031546,"MEAN_MOTION_DOT":3.467e-5,"MEAN_MOTION_DDOT":0},{"OBJECT_NAME":"SHIJIAN-16 (SJ-16)","OBJECT_ID":"2013-057A","EPOCH":"2026-03-26T12:32:18.043584","MEAN_MOTION":14.92410576,"ECCENTRICITY":0.0015241,"INCLINATION":74.9724,"RA_OF_ASC_NODE":153.2241,"ARG_OF_PERICENTER":68.9727,"MEAN_ANOMALY":291.309,"EPHEMERIS_TYPE":0,"CLASSIFICATION_TYPE":"U","NORAD_CAT_ID":39358,"ELEMENT_SET_NO":999,"REV_AT_EPOCH":67401,"BSTAR":9.083e-5,"MEAN_MOTION_DOT":9.03e-6,"MEAN_MOTION_DDOT":0},{"OBJECT_NAME":"SL-4 R/B","OBJECT_ID":"2014-021B","EPOCH":"2026-03-25T19:01:41.820096","MEAN_MOTION":15.39717175,"ECCENTRICITY":0.00959711,"INCLINATION":51.6053,"RA_OF_ASC_NODE":258.6863,"ARG_OF_PERICENTER":161.6166,"MEAN_ANOMALY":198.8326,"EPHEMERIS_TYPE":0,"CLASSIFICATION_TYPE":"U","NORAD_CAT_ID":39679,"ELEMENT_SET_NO":999,"REV_AT_EPOCH":65875,"BSTAR":0.00037834437,"MEAN_MOTION_DOT":0.00017461,"MEAN_MOTION_DDOT":0},{"OBJECT_NAME":"ALOS-2","OBJECT_ID":"2014-029A","EPOCH":"2026-03-26T13:25:19.502400","MEAN_MOTION":14.79437804,"ECCENTRICITY":0.0001898,"INCLINATION":97.9185,"RA_OF_ASC_NODE":183.9107,"ARG_OF_PERICENTER":104.8768,"MEAN_ANOMALY":255.2654,"EPHEMERIS_TYPE":0,"CLASSIFICATION_TYPE":"U","NORAD_CAT_ID":39766,"ELEMENT_SET_NO":999,"REV_AT_EPOCH":63936,"BSTAR":0.00025745,"MEAN_MOTION_DOT":1.87e-5,"MEAN_MOTION_DDOT":0},{"OBJECT_NAME":"YAOGAN-29","OBJECT_ID":"2015-069A","EPOCH":"2026-03-26T12:39:33.020064","MEAN_MOTION":14.83014414,"ECCENTRICITY":7.07e-5,"INCLINATION":98.0124,"RA_OF_ASC_NODE":114.0006,"ARG_OF_PERICENTER":10.651,"MEAN_ANOMALY":349.4718,"EPHEMERIS_TYPE":0,"CLASSIFICATION_TYPE":"U","NORAD_CAT_ID":41038,"ELEMENT_SET_NO":999,"REV_AT_EPOCH":55837,"BSTAR":7.2902e-5,"MEAN_MOTION_DOT":5.38e-6,"MEAN_MOTION_DDOT":0},{"OBJECT_NAME":"ASTRO-H (HITOMI)","OBJECT_ID":"2016-012A","EPOCH":"2026-03-26T11:45:08.797824","MEAN_MOTION":15.10106763,"ECCENTRICITY":0.0009607,"INCLINATION":30.9987,"RA_OF_ASC_NODE":248.1244,"ARG_OF_PERICENTER":140.6627,"MEAN_ANOMALY":219.471,"EPHEMERIS_TYPE":0,"CLASSIFICATION_TYPE":"U","NORAD_CAT_ID":41337,"ELEMENT_SET_NO":999,"REV_AT_EPOCH":55477,"BSTAR":0.00016959,"MEAN_MOTION_DOT":2.929e-5,"MEAN_MOTION_DDOT":0},{"OBJECT_NAME":"HXMT (HUIYAN)","OBJECT_ID":"2017-034A","EPOCH":"2026-03-26T13:28:11.236224","MEAN_MOTION":15.17673721,"ECCENTRICITY":0.0032196,"INCLINATION":43.0144,"RA_OF_ASC_NODE":282.8595,"ARG_OF_PERICENTER":338.9624,"MEAN_ANOMALY":20.9899,"EPHEMERIS_TYPE":0,"CLASSIFICATION_TYPE":"U","NORAD_CAT_ID":42758,"ELEMENT_SET_NO":999,"REV_AT_EPOCH":48510,"BSTAR":0.00025417,"MEAN_MOTION_DOT":5.041e-5,"MEAN_MOTION_DDOT":0}]
