ALOS (DAICHI)           
1 28931U 06002A   26085.38569357  .00001332  00000+0  23109-3 0  9994
2 28931  98.1244  41.2608 0000801 102.6202 257.5093 14.69859086 75937
H-2A R/B                
1 28932U 06002B   26085.36769595  .00010510  00000+0  52043-3 0  9996
2 28932  98.2440 233.8332 0052381 183.9867 176.0954 15.16776031 96967
RESURS-DK 1             
1 29228U 06021A   26085.39643453  .00002165  00000+0  12896-3 0  9992
2 29228  69.9337 193.8061 0000933  66.6761 293.4503 15.12849732 90059
CZ-4B R/B               
1 29507U 06046C   26085.09975894  .00003753  00000+0  19060-3 0  9997
2 29507  97.5563 129.9638 0032467 208.1224 151.8257 15.17064963 62536
CZ-2C R/B               
1 31114U 07010B   26085.28169860  .00000139  00000+0  83269-4 0  9993
2 31114  98.3996 197.7303 0057958 245.4224 114.0907 14.20252036982076
COSMO-SKYMED 1          
1 31598U 07023A   26085.51304662  .00002753  00000+0  24661-3 0  9994
2 31598  97.8878 276.6823 0000973  92.7061 267.4272 14.96653651 17423
COSMOS 2428             
1 31792U 07029A   26085.45472250 -.00000037  00000+0  58204-5 0  9994
2 31792  70.9438 168.1573 0009672 259.8842 100.1189 14.12948166966461
SL-16 R/B               
1 31793U 07029B   26085.39492419  .00000118  00000+0  85760-4 0  9992
2 31793  70.9751 137.2707 0002613 277.4263 166.7129 14.14842856967731
KORONAS-FOTON           
1 33504U 09003A   26085.42530223  .00013405  00000+0  29497-3 0  9995
2 33504  82.4279 258.4701 0011795  95.5118 264.7475 15.43755160948326
CZ-2C R/B               
1 37731U 11030B   26085.44191675  .00001457  00000+0  18971-3 0  9999
2 37731  97.8572  42.3734 0051195 296.7374 175.7510 14.81279405792570
H-2A R/B                
1 38341U 12025E   26085.39168096  .00003467  00000+0  31546-3 0  9993
2 38341  98.4760  53.7793 0042713 257.7132 101.9303 14.95281735750715
SHIJIAN-16 (SJ-16)      
1 39358U 13057A   26085.52243106  .00000903  00000+0  90830-4 0  9993
2 39358  74.9724 153.2241 0015241  68.9727 291.3090 14.92410576674014
SL-4 R/B                
1 39679U 14021B   26084.79284514  .00017461  00000+0  37834-3 0  9998
2 39679  51.6053 258.6863 0095971 161.6166 198.8326 15.39717175658756
ALOS-2                  
1 39766U 14029A   26085.55925350  .00001870  00000+0  25745-3 0  9993
2 39766  97.9185 183.9107 0001898 104.8768 255.2654 14.79437804639364
YAOGAN-29               
1 41038U 15069A   26085.52746551  .00000538  00000+0  72902-4 0  9992
2 41038  98.0124 114.0006 0000707  10.6510 349.4718 14.83014414558375
ASTRO-H (HITOMI)        
1 41337U 16012A   26085.48968516  .00002929  00000+0  16959-3 0  9990
2 41337  30.9987 248.1244 0009607 140.6627 219.4710 15.10106763554771
HXMT (HUIYAN)           
1 42758U 17034A   26085.56124116  .00005041  00000+0  25417-3 0  9999
2 42758  43.0144 282.8595 0032196 338.9624  20.9899 15.17673721485104
